<?xml version="1.0" encoding="UTF-8"?><gpx creator="Wikiloc - https://www.wikiloc.com" version="1.1" xmlns="http://www.topografix.com/GPX/1/1" xmlns:xsi="http://www.w3.org/2001/XMLSchema-instance" xsi:schemaLocation="http://www.topografix.com/GPX/1/1 http://www.topografix.com/GPX/1/1/gpx.xsd"><metadata><name>Wikiloc - 下雨崩至神湖路线</name><author><name>月光1981</name><link href="https://www.wikiloc.com/wikiloc/user.do?id=239849"><text>月光1981 on Wikiloc</text></link></author><link href="https://www.wikiloc.com/hiking-trails/xia-yu-beng-zhi-shen-hu-lu-xian-1903344"><text>下雨崩至神湖路线 on Wikiloc</text></link><time>2011-08-02T05:17:24.543Z</time></metadata><wpt lat="28.362954" lon="98.790424"><ele>4346.3</ele><time>2011-08-02T05:17:24.543Z</time><name>牧场(muchang）</name><cmt></cmt><desc></desc></wpt><wpt lat="28.359753" lon="98.786289"><ele>4460.1</ele><time>2011-08-02T05:17:24.543Z</time><name>神湖（shenhu）</name><cmt></cmt><desc></desc></wpt><trk><name>下雨崩至神湖路线 - Wikiloc</name><cmt></cmt><desc></desc><trkseg><trkpt lat="28.390854" lon="98.792835"><ele>3060.122</ele><time>2026-08-16T09:26:56.491480278Z</time></trkpt><trkpt lat="28.390332" lon="98.792829"><ele>3067.562</ele><time>2026-08-16T09:27:36.491485157Z</time></trkpt><trkpt lat="28.389596" lon="98.792943"><ele>3101.308</ele><time>2026-08-16T09:28:16.491488433Z</time></trkpt><trkpt lat="28.389149" lon="98.792915"><ele>3130.407</ele><time>2026-08-16T09:28:56.491491649Z</time></trkpt><trkpt lat="28.388407" lon="98.792382"><ele>3163.553</ele><time>2026-08-16T09:29:36.491494635Z</time></trkpt><trkpt lat="28.387704" lon="98.791879"><ele>3200.661</ele><time>2026-08-16T09:30:16.491497240Z</time></trkpt><trkpt lat="28.387250" lon="98.791651"><ele>3216.552</ele><time>2026-08-16T09:30:56.491500115Z</time></trkpt><trkpt lat="28.386885" lon="98.791449"><ele>3224.975</ele><time>2026-08-16T09:31:36.491502770Z</time></trkpt><trkpt lat="28.386485" lon="98.791513"><ele>3249.055</ele><time>2026-08-16T09:32:16.491505525Z</time></trkpt><trkpt lat="28.386046" lon="98.791392"><ele>3261.536</ele><time>2026-08-16T09:32:56.491508190Z</time></trkpt><trkpt lat="28.385929" lon="98.791755"><ele>3286.896</ele><time>2026-08-16T09:33:36.491510825Z</time></trkpt><trkpt lat="28.385713" lon="98.792000"><ele>3308.938</ele><time>2026-08-16T09:34:16.491513620Z</time></trkpt><trkpt lat="28.385845" lon="98.792351"><ele>3321.870</ele><time>2026-08-16T09:34:56.491516265Z</time></trkpt><trkpt lat="28.385784" lon="98.792565"><ele>3336.517</ele><time>2026-08-16T09:35:36.491518900Z</time></trkpt><trkpt lat="28.385636" lon="98.792827"><ele>3359.507</ele><time>2026-08-16T09:36:16.491521585Z</time></trkpt><trkpt lat="28.385631" lon="98.793269"><ele>3385.544</ele><time>2026-08-16T09:36:56.491524160Z</time></trkpt><trkpt lat="28.384840" lon="98.794550"><ele>3485.792</ele><time>2026-08-16T09:37:36.491526805Z</time></trkpt><trkpt lat="28.384563" lon="98.794824"><ele>3516.573</ele><time>2026-08-16T09:38:16.491529400Z</time></trkpt><trkpt lat="28.384302" lon="98.794827"><ele>3532.586</ele><time>2026-08-16T09:38:56.491532045Z</time></trkpt><trkpt lat="28.384426" lon="98.795309"><ele>3548.436</ele><time>2026-08-16T09:39:36.491534609Z</time></trkpt><trkpt lat="28.384449" lon="98.795760"><ele>3568.897</ele><time>2026-08-16T09:40:16.491537224Z</time></trkpt><trkpt lat="28.384391" lon="98.795936"><ele>3579.117</ele><time>2026-08-16T09:40:56.491539789Z</time></trkpt><trkpt lat="28.384109" lon="98.796427"><ele>3609.626</ele><time>2026-08-16T09:41:36.494431782Z</time></trkpt><trkpt lat="28.383568" lon="98.796615"><ele>3650.347</ele><time>2026-08-16T09:42:16.494436481Z</time></trkpt><trkpt lat="28.383164" lon="98.796827"><ele>3675.211</ele><time>2026-08-16T09:42:56.494439296Z</time></trkpt><trkpt lat="28.382359" lon="98.796767"><ele>3732.707</ele><time>2026-08-16T09:43:36.494442071Z</time></trkpt><trkpt lat="28.381230" lon="98.796789"><ele>3795.033</ele><time>2026-08-16T09:44:16.494445017Z</time></trkpt><trkpt lat="28.380692" lon="98.796708"><ele>3825.361</ele><time>2026-08-16T09:44:56.494447652Z</time></trkpt><trkpt lat="28.380415" lon="98.796634"><ele>3839.752</ele><time>2026-08-16T09:45:36.494450387Z</time></trkpt><trkpt lat="28.380245" lon="98.796879"><ele>3837.165</ele><time>2026-08-16T09:46:16.494452952Z</time></trkpt><trkpt lat="28.379398" lon="98.796848"><ele>3877.245</ele><time>2026-08-16T09:46:56.494455507Z</time></trkpt><trkpt lat="28.379247" lon="98.796599"><ele>3891.236</ele><time>2026-08-16T09:47:36.494458081Z</time></trkpt><trkpt lat="28.378272" lon="98.796694"><ele>3931.836</ele><time>2026-08-16T09:48:16.494460686Z</time></trkpt><trkpt lat="28.377597" lon="98.796481"><ele>3959.942</ele><time>2026-08-16T09:48:56.494463441Z</time></trkpt><trkpt lat="28.377198" lon="98.796429"><ele>3979.722</ele><time>2026-08-16T09:49:36.494466006Z</time></trkpt><trkpt lat="28.375957" lon="98.796155"><ele>4035.014</ele><time>2026-08-16T09:50:16.494468611Z</time></trkpt><trkpt lat="28.375614" lon="98.796051"><ele>4041.107</ele><time>2026-08-16T09:50:56.494471176Z</time></trkpt><trkpt lat="28.375331" lon="98.796121"><ele>4035.765</ele><time>2026-08-16T09:51:36.494473771Z</time></trkpt><trkpt lat="28.375049" lon="98.795692"><ele>4059.063</ele><time>2026-08-16T09:52:16.494476336Z</time></trkpt><trkpt lat="28.374801" lon="98.795329"><ele>4082.614</ele><time>2026-08-16T09:52:56.494478950Z</time></trkpt><trkpt lat="28.373638" lon="98.794736"><ele>4121.167</ele><time>2026-08-16T09:53:36.494481555Z</time></trkpt><trkpt lat="28.373216" lon="98.794386"><ele>4142.997</ele><time>2026-08-16T09:54:16.494484100Z</time></trkpt><trkpt lat="28.372677" lon="98.793936"><ele>4169.138</ele><time>2026-08-16T09:54:56.494486705Z</time></trkpt><trkpt lat="28.371825" lon="98.793713"><ele>4200.598</ele><time>2026-08-16T09:55:36.494489350Z</time></trkpt><trkpt lat="28.371251" lon="98.793597"><ele>4233.322</ele><time>2026-08-16T09:56:16.494492025Z</time></trkpt><trkpt lat="28.370562" lon="98.793615"><ele>4262.962</ele><time>2026-08-16T09:56:56.494494660Z</time></trkpt><trkpt lat="28.369815" lon="98.793326"><ele>4295.908</ele><time>2026-08-16T09:57:36.494497285Z</time></trkpt><trkpt lat="28.369563" lon="98.793214"><ele>4298.707</ele><time>2026-08-16T09:58:16.494499860Z</time></trkpt><trkpt lat="28.368641" lon="98.793275"><ele>4283.053</ele><time>2026-08-16T09:58:56.494502515Z</time></trkpt><trkpt lat="28.368356" lon="98.793240"><ele>4278.941</ele><time>2026-08-16T09:59:36.494505079Z</time></trkpt><trkpt lat="28.368355" lon="98.793225"><ele>4279.792</ele><time>2026-08-16T10:00:16.494507684Z</time></trkpt><trkpt lat="28.367562" lon="98.792744"><ele>4276.415</ele><time>2026-08-16T10:00:56.494510429Z</time></trkpt><trkpt lat="28.366963" lon="98.792398"><ele>4278.475</ele><time>2026-08-16T10:01:36.494512964Z</time></trkpt><trkpt lat="28.366206" lon="98.792091"><ele>4271.036</ele><time>2026-08-16T10:02:16.494515549Z</time></trkpt><trkpt lat="28.365505" lon="98.791873"><ele>4265.476</ele><time>2026-08-16T10:02:56.494518164Z</time></trkpt><trkpt lat="28.364634" lon="98.791432"><ele>4278.172</ele><time>2026-08-16T10:03:36.494520839Z</time></trkpt><trkpt lat="28.363970" lon="98.791287"><ele>4295.313</ele><time>2026-08-16T10:04:16.494523524Z</time></trkpt><trkpt lat="28.363758" lon="98.791168"><ele>4307.314</ele><time>2026-08-16T10:04:56.494526159Z</time></trkpt><trkpt lat="28.363025" lon="98.790363"><ele>4342.607</ele><time>2026-08-16T10:05:36.494528744Z</time></trkpt><trkpt lat="28.362251" lon="98.789479"><ele>4363.158</ele><time>2026-08-16T10:06:16.494531329Z</time></trkpt><trkpt lat="28.361805" lon="98.789140"><ele>4374.966</ele><time>2026-08-16T10:06:56.494533923Z</time></trkpt><trkpt lat="28.361273" lon="98.789045"><ele>4381.657</ele><time>2026-08-16T10:07:36.494536498Z</time></trkpt><trkpt lat="28.361047" lon="98.788710"><ele>4386.010</ele><time>2026-08-16T10:08:16.494539153Z</time></trkpt><trkpt lat="28.360485" lon="98.788202"><ele>4387.360</ele><time>2026-08-16T10:08:56.494541778Z</time></trkpt><trkpt lat="28.360049" lon="98.787448"><ele>4407.091</ele><time>2026-08-16T10:09:36.494544383Z</time></trkpt><trkpt lat="28.359859" lon="98.786767"><ele>4441.211</ele><time>2026-08-16T10:10:16.494565122Z</time></trkpt><trkpt lat="28.359738" lon="98.786344"><ele>4458.983</ele><time>2026-08-16T10:10:56.494568418Z</time></trkpt></trkseg></trk></gpx>